{
    "links": {
        "self": "http://www.neowsapp.com/rest/v1/neo/3991555?api_key=iIulBulltgU6a56xZRHN4H3l9WmuAYTsLGpBGhQ2"
    },
    "id": "3991555",
    "neo_reference_id": "3991555",
    "name": "(2020 CC2)",
    "designation": "2020 CC2",
    "nasa_jpl_url": "http://ssd.jpl.nasa.gov/sbdb.cgi?sstr=3991555",
    "absolute_magnitude_h": 25.051,
    "estimated_diameter": {
        "kilometers": {
            "estimated_diameter_min": 0.0259630062,
            "estimated_diameter_max": 0.0580550467
        },
        "meters": {
            "estimated_diameter_min": 25.9630061733,
            "estimated_diameter_max": 58.0550467038
        },
        "miles": {
            "estimated_diameter_min": 0.0161326591,
            "estimated_diameter_max": 0.0360737224
        },
        "feet": {
            "estimated_diameter_min": 85.1804691737,
            "estimated_diameter_max": 190.4693194277
        }
    },
    "is_potentially_hazardous_asteroid": false,
    "close_approach_data": [
        {
            "close_approach_date": "1940-08-11",
            "close_approach_date_full": "1940-Aug-11 08:15",
            "epoch_date_close_approach": -927474300000,
            "relative_velocity": {
                "kilometers_per_second": "17.042636445",
                "kilometers_per_hour": "61353.491201833",
                "miles_per_hour": "38122.6734637167"
            },
            "miss_distance": {
                "astronomical": "0.2141637621",
                "lunar": "83.3097034569",
                "kilometers": "32038442.641346727",
                "miles": "19907765.1219977526"
            },
            "orbiting_body": "Earth"
        },
        {
            "close_approach_date": "1991-08-03",
            "close_approach_date_full": "1991-Aug-03 13:54",
            "epoch_date_close_approach": 681227640000,
            "relative_velocity": {
                "kilometers_per_second": "22.1128608449",
                "kilometers_per_hour": "79606.2990416292",
                "miles_per_hour": "49464.2584239501"
            },
            "miss_distance": {
                "astronomical": "0.3963419305",
                "lunar": "154.1770109645",
                "kilometers": "59291908.594488035",
                "miles": "36842283.601223483"
            },
            "orbiting_body": "Earth"
        },
        {
            "close_approach_date": "2016-01-29",
            "close_approach_date_full": "2016-Jan-29 15:01",
            "epoch_date_close_approach": 1454079660000,
            "relative_velocity": {
                "kilometers_per_second": "7.7541604219",
                "kilometers_per_hour": "27914.9775187538",
                "miles_per_hour": "17345.2814476946"
            },
            "miss_distance": {
                "astronomical": "0.1874688235",
                "lunar": "72.9253723415",
                "kilometers": "28044936.687005945",
                "miles": "17426315.588314241"
            },
            "orbiting_body": "Earth"
        },
        {
            "close_approach_date": "2020-02-02",
            "close_approach_date_full": "2020-Feb-02 08:35",
            "epoch_date_close_approach": 1580632500000,
            "relative_velocity": {
                "kilometers_per_second": "11.2794861835",
                "kilometers_per_hour": "40606.1502605374",
                "miles_per_hour": "25231.0826438322"
            },
            "miss_distance": {
                "astronomical": "0.0629337022",
                "lunar": "24.4812101558",
                "kilometers": "9414747.800334314",
                "miles": "5850053.0125649732"
            },
            "orbiting_body": "Earth"
        },
        {
            "close_approach_date": "2024-02-08",
            "close_approach_date_full": "2024-Feb-08 23:39",
            "epoch_date_close_approach": 1707435540000,
            "relative_velocity": {
                "kilometers_per_second": "15.6519820509",
                "kilometers_per_hour": "56347.1353831612",
                "miles_per_hour": "35011.9186496092"
            },
            "miss_distance": {
                "astronomical": "0.1687297126",
                "lunar": "65.6358582014",
                "kilometers": "25241605.610672162",
                "miles": "15684406.4308813556"
            },
            "orbiting_body": "Earth"
        }
    ],
    "orbital_data": {
        "orbit_id": "5",
        "orbit_determination_date": "2020-03-15 07:08:26",
        "first_observation_date": "2020-02-06",
        "last_observation_date": "2020-02-23",
        "data_arc_in_days": 17,
        "observations_used": 28,
        "orbit_uncertainty": "8",
        "minimum_orbit_intersection": ".0163619",
        "jupiter_tisserand_invariant": "5.162",
        "epoch_osculation": "2458888.5",
        "eccentricity": ".3449695290380148",
        "semi_major_axis": "1.216776974371629",
        "inclination": "12.5569544015361",
        "ascending_node_longitude": "326.6799994280602",
        "orbital_period": "490.2469506494173",
        "perihelion_distance": ".7970259945783478",
        "perihelion_argument": "84.79155792574522",
        "aphelion_distance": "1.636527954164911",
        "perihelion_time": "2458821.203888607167",
        "mean_anomaly": "49.4171357299164",
        "mean_motion": ".7343237923726348",
        "equinox": "J2000",
        "orbit_class": {
            "orbit_class_type": "APO",
            "orbit_class_description": "Near-Earth asteroid orbits which cross the Earth’s orbit similar to that of 1862 Apollo",
            "orbit_class_range": "a (semi-major axis) > 1.0 AU; q (perihelion) < 1.017 AU"
        }
    },
    "is_sentry_object": false
}